ONEWEB-0018             
1 45434U 20020L   25058.57569366 -.00000234  00000+0 -69564-3 0  9994
2 45434  87.8852 115.6789 0002039  99.1131 261.0227 13.11418164240438
ONEWEB-0083             
1 45435U 20020M   25058.41292622 -.00000473  00000+0 -13706-2 0  9997
2 45435  87.8850 115.6945 0001884  98.4225 261.7117 13.11417138240440
ONEWEB-0095             
1 45436U 20020N   25058.40457953 -.00000350  00000+0 -10236-2 0  9996
2 45436  87.8849 115.7252 0001202  89.9974 270.1291 13.11416004240449
ONEWEB-0092             
1 45437U 20020P   25058.45278118  .00000597  00000+0  16498-2 0  9993
2 45437  87.8849 115.7028 0001637 100.7377 259.3936 13.11415455240569
ONEWEB-0085             
1 45438U 20020Q   25058.40614603 -.00000366  00000+0 -10676-2 0  9990
2 45438  87.8853 115.7214 0001980 100.6693 259.4658 13.11415703240448
ONEWEB-0096             
1 45439U 20020R   25058.56721531 -.00000400  00000+0 -11645-2 0  9993
2 45439  87.8849 115.6561 0002128 105.4539 254.6825 13.11417588240452
ONEWEB-0037             
1 45440U 20020S   25058.54856790 -.00000020  00000+0 -90988-4 0  9996
2 45440  87.8842 115.6292 0001807 101.0200 259.1131 13.11415119240489
ONEWEB-0042             
1 45441U 20020T   25058.40430488 -.00000525  00000+0 -15177-2 0  9999
2 45441  87.8860 115.7010 0001991 104.2895 255.8454 13.11417132240431
